start=new Date('2022-08-19T00:00:00.000Z').valueOf();
sats=[{"REV_AT_EPOCH":"8753","CENTER_NAME":"EARTH","ARG_OF_PERICENTER":"77.3944","LAUNCH_DATE":"2021-01-20","OBJECT_TYPE":"PAYLOAD","CLASSIFICATION_TYPE":"U","MEAN_ELEMENT_THEORY":"SGP4","FILE":"3539615","RA_OF_ASC_NODE":"113.0404","TLE_LINE2":"2 47399  53.0530 113.0404 0001671  77.3944 282.7232 15.06418275 87530","INCLINATION":"53.0530","BSTAR":"0.00039601000000","SEMIMAJOR_AXIS":"6925.293","GP_ID":"210474599","MEAN_ANOMALY":"282.7232","DECAY_DATE":null,"OBJECT_ID":"2021-005BC","NORAD_CAT_ID":"47399","PERIAPSIS":"546.000","EPHEMERIS_TYPE":"0","COUNTRY_CODE":"US","EPOCH":"2022-08-18T17:56:01.913568","SITE":"AFETR","TLE_LINE1":"1 47399U 21005BC  22230.74724437  .00005625  00000-0  39601-3 0  9997","MEAN_MOTION_DOT":"0.00005625","PERIOD":"95.591","ECCENTRICITY":"0.00016710","OBJECT_NAME":"STARLINK-2121","RCS_SIZE":"LARGE","MEAN_MOTION":"15.06418275","APOAPSIS":"548.315","REF_FRAME":"TEME","MEAN_MOTION_DDOT":"0.0000000000000","TIME_SYSTEM":"UTC","ELEMENT_SET_NO":"999"},{"DECAY_DATE":null,"MEAN_ANOMALY":"278.5241","NORAD_CAT_ID":"47400","OBJECT_ID":"2021-005BD","FILE":"3539281","RA_OF_ASC_NODE":"95.9597","INCLINATION":"53.0543","TLE_LINE2":"2 47400  53.0543  95.9597 0002034  81.5978 278.5241 15.06375685 87716","SEMIMAJOR_AXIS":"6925.423","GP_ID":"210440618","BSTAR":"0.00132910000000","CLASSIFICATION_TYPE":"U","MEAN_ELEMENT_THEORY":"SGP4","REV_AT_EPOCH":"8771","ARG_OF_PERICENTER":"81.5978","LAUNCH_DATE":"2021-01-20","CENTER_NAME":"EARTH","OBJECT_TYPE":"PAYLOAD","REF_FRAME":"TEME","MEAN_MOTION_DDOT":"0.0000000000000","ELEMENT_SET_NO":"999","TIME_SYSTEM":"UTC","PERIOD":"95.594","OBJECT_NAME":"STARLINK-2122","MEAN_MOTION_DOT":"0.00019558","ECCENTRICITY":"0.00020340","MEAN_MOTION":"15.06375685","RCS_SIZE":"LARGE","APOAPSIS":"548.697","EPOCH":"2022-08-18T01:04:54.660576","COUNTRY_CODE":"US","TLE_LINE1":"1 47400U 21005BD  22230.04507709  .00019558  00000-0  13291-2 0  9990","SITE":"AFETR","EPHEMERIS_TYPE":"0","PERIAPSIS":"545.879"},{"LAUNCH_DATE":"2021-01-20","ARG_OF_PERICENTER":"67.9570","CENTER_NAME":"EARTH","REV_AT_EPOCH":"8770","OBJECT_TYPE":"PAYLOAD","CLASSIFICATION_TYPE":"U","MEAN_ELEMENT_THEORY":"SGP4","RA_OF_ASC_NODE":"102.3114","FILE":"3539615","SEMIMAJOR_AXIS":"6925.307","GP_ID":"210474097","BSTAR":"0.00031153000000","INCLINATION":"53.0537","TLE_LINE2":"2 47401  53.0537 102.3114 0001570  67.9570 292.1586 15.06413555 87700","DECAY_DATE":null,"MEAN_ANOMALY":"292.1586","NORAD_CAT_ID":"47401","OBJECT_ID":"2021-005BE","EPHEMERIS_TYPE":"0","PERIAPSIS":"546.085","EPOCH":"2022-08-18T20:36:33.393312","COUNTRY_CODE":"US","TLE_LINE1":"1 47401U 21005BE  22230.85871983  .00004363  00000-0  31153-3 0  9994","SITE":"AFETR","PERIOD":"95.591","MEAN_MOTION_DOT":"0.00004363","ECCENTRICITY":"0.00015700","OBJECT_NAME":"STARLINK-2123","APOAPSIS":"548.259","RCS_SIZE":"LARGE","MEAN_MOTION":"15.06413555","REF_FRAME":"TEME","ELEMENT_SET_NO":"999","TIME_SYSTEM":"UTC","MEAN_MOTION_DDOT":"0.0000000000000"},{"APOAPSIS":"548.330","MEAN_MOTION":"15.06401426","RCS_SIZE":"LARGE","MEAN_MOTION_DOT":"0.00001336","PERIOD":"95.592","ECCENTRICITY":"0.00016180","OBJECT_NAME":"STARLINK-2124","TIME_SYSTEM":"UTC","ELEMENT_SET_NO":"999","MEAN_MOTION_DDOT":"0.0000000000000","REF_FRAME":"TEME","PERIAPSIS":"546.089","EPHEMERIS_TYPE":"0","SITE":"AFETR","TLE_LINE1":"1 47402U 21005BF  22230.74445714  .00001336  00000-0  10855-3 0  9995","COUNTRY_CODE":"US","EPOCH":"2022-08-18T17:52:01.096896","BSTAR":"0.00010855000000","SEMIMAJOR_AXIS":"6925.344","GP_ID":"210474347","TLE_LINE2":"2 47402  53.0551 102.8111 0001618  80.4093 279.7078 15.06401426 87680","INCLINATION":"53.0551","FILE":"3539615","RA_OF_ASC_NODE":"102.8111","OBJECT_ID":"2021-005BF","NORAD_CAT_ID":"47402","MEAN_ANOMALY":"279.7078","DECAY_DATE":null,"OBJECT_TYPE":"PAYLOAD","CENTER_NAME":"EARTH","LAUNCH_DATE":"2021-01-20","ARG_OF_PERICENTER":"80.4093","REV_AT_EPOCH":"8768","MEAN_ELEMENT_THEORY":"SGP4","CLASSIFICATION_TYPE":"U"},{"TIME_SYSTEM":"UTC","ELEMENT_SET_NO":"999","MEAN_MOTION_DDOT":"0.0000000000000","REF_FRAME":"TEME","APOAPSIS":"548.072","RCS_SIZE":"LARGE","MEAN_MOTION":"15.06416138","PERIOD":"95.591","MEAN_MOTION_DOT":"0.00005385","ECCENTRICITY":"0.00013110","OBJECT_NAME":"STARLINK-2127","SITE":"AFETR","TLE_LINE1":"1 47403U 21005BG  22230.75182389  .00005385  00000-0  37996-3 0  9996","COUNTRY_CODE":"US","EPOCH":"2022-08-18T18:02:37.584096","PERIAPSIS":"546.256","EPHEMERIS_TYPE":"0","OBJECT_ID":"2021-005BG","NORAD_CAT_ID":"47403","MEAN_ANOMALY":"278.0083","DECAY_DATE":null,"BSTAR":"0.00037996000000","GP_ID":"210475099","SEMIMAJOR_AXIS":"6925.299","TLE_LINE2":"2 47403  53.0543 102.7875 0001311  82.1055 278.0083 15.06416138 87689","INCLINATION":"53.0543","FILE":"3539615","RA_OF_ASC_NODE":"102.7875","MEAN_ELEMENT_THEORY":"SGP4","CLASSIFICATION_TYPE":"U","OBJECT_TYPE":"PAYLOAD","CENTER_NAME":"EARTH","ARG_OF_PERICENTER":"82.1055","LAUNCH_DATE":"2021-01-20","REV_AT_EPOCH":"8768"},{"LAUNCH_DATE":"2021-01-20","ARG_OF_PERICENTER":"77.8433","CENTER_NAME":"EARTH","REV_AT_EPOCH":"8770","OBJECT_TYPE":"PAYLOAD","CLASSIFICATION_TYPE":"U","MEAN_ELEMENT_THEORY":"SGP4","FILE":"3539615","RA_OF_ASC_NODE":"102.2071","SEMIMAJOR_AXIS":"6925.307","GP_ID":"210475348","BSTAR":"0.00039399000000","INCLINATION":"53.0540","TLE_LINE2":"2 47404  53.0540 102.2071 0001585  77.8433 282.2734 15.06413477 87700","DECAY_DATE":null,"MEAN_ANOMALY":"282.2734","NORAD_CAT_ID":"47404","OBJECT_ID":"2021-005BH","EPHEMERIS_TYPE":"0","PERIAPSIS":"546.075","EPOCH":"2022-08-18T21:08:23.902944","COUNTRY_CODE":"US","TLE_LINE1":"1 47404U 21005BH  22230.88083221  .00005594  00000-0  39399-3 0  9997","SITE":"AFETR","OBJECT_NAME":"STARLINK-2128","PERIOD":"95.591","MEAN_MOTION_DOT":"0.00005594","ECCENTRICITY":"0.00015850","APOAPSIS":"548.270","RCS_SIZE":"LARGE","MEAN_MOTION":"15.06413477","REF_FRAME":"TEME","ELEMENT_SET_NO":"999","TIME_SYSTEM":"UTC","MEAN_MOTION_DDOT":"0.0000000000000"},{"MEAN_MOTION_DOT":"0.00005497","PERIOD":"95.591","ECCENTRICITY":"0.00017200","OBJECT_NAME":"STARLINK-2130","APOAPSIS":"548.351","MEAN_MOTION":"15.06417540","RCS_SIZE":"LARGE","REF_FRAME":"TEME","TIME_SYSTEM":"UTC","ELEMENT_SET_NO":"999","MEAN_MOTION_DDOT":"0.0000000000000","PERIAPSIS":"545.969","EPHEMERIS_TYPE":"0","COUNTRY_CODE":"US","EPOCH":"2022-08-18T22:18:43.272000","SITE":"AFETR","TLE_LINE1":"1 47405U 21005BJ  22230.92966750  .00005497  00000-0  38743-3 0  9994","RA_OF_ASC_NODE":"131.9730","FILE":"3539615","BSTAR":"0.00038743000000","SEMIMAJOR_AXIS":"6925.295","GP_ID":"210473598","TLE_LINE2":"2 47405  53.0537 131.9730 0001720  67.9774 292.1397 15.06417540 87280","INCLINATION":"53.0537","MEAN_ANOMALY":"292.1397","DECAY_DATE":null,"OBJECT_ID":"2021-005BJ","NORAD_CAT_ID":"47405","CENTER_NAME":"EARTH","LAUNCH_DATE":"2021-01-20","ARG_OF_PERICENTER":"67.9774","REV_AT_EPOCH":"8728","OBJECT_TYPE":"PAYLOAD","CLASSIFICATION_TYPE":"U","MEAN_ELEMENT_THEORY":"SGP4"},{"DECAY_DATE":null,"MEAN_ANOMALY":"267.6303","NORAD_CAT_ID":"47406","OBJECT_ID":"2021-005BK","RA_OF_ASC_NODE":"102.7563","FILE":"3539615","INCLINATION":"53.0544","TLE_LINE2":"2 47406  53.0544 102.7563 0001455  92.4852 267.6303 15.06402848 87687","GP_ID":"210473848","SEMIMAJOR_AXIS":"6925.340","BSTAR":"0.00011896000000","CLASSIFICATION_TYPE":"U","MEAN_ELEMENT_THEORY":"SGP4","REV_AT_EPOCH":"8768","LAUNCH_DATE":"2021-01-20","ARG_OF_PERICENTER":"92.4852","CENTER_NAME":"EARTH","OBJECT_TYPE":"PAYLOAD","REF_FRAME":"TEME","MEAN_MOTION_DDOT":"0.0000000000000","ELEMENT_SET_NO":"999","TIME_SYSTEM":"UTC","PERIOD":"95.592","MEAN_MOTION_DOT":"0.00001491","OBJECT_NAME":"STARLINK-2133","ECCENTRICITY":"0.00014550","RCS_SIZE":"LARGE","MEAN_MOTION":"15.06402848","APOAPSIS":"548.212","EPOCH":"2022-08-18T18:13:14.854080","COUNTRY_CODE":"US","TLE_LINE1":"1 47406U 21005BK  22230.75919970  .00001491  00000-0  11896-3 0  9998","SITE":"AFETR","EPHEMERIS_TYPE":"0","PERIAPSIS":"546.197"},{"TLE_LINE1":"1 47407U 21005BL  22230.36849027  .00004238  00000-0  30319-3 0  9994","SITE":"AFETR","EPOCH":"2022-08-18T08:50:37.559328","COUNTRY_CODE":"US","EPHEMERIS_TYPE":"0","PERIAPSIS":"546.063","ELEMENT_SET_NO":"999","TIME_SYSTEM":"UTC","MEAN_MOTION_DDOT":"0.0000000000000","REF_FRAME":"TEME","APOAPSIS":"548.319","MEAN_MOTION":"15.06407246","RCS_SIZE":"LARGE","PERIOD":"95.592","MEAN_MOTION_DOT":"0.00004238","ECCENTRICITY":"0.00016290","OBJECT_NAME":"STARLINK-2134","MEAN_ELEMENT_THEORY":"SGP4","CLASSIFICATION_TYPE":"U","OBJECT_TYPE":"PAYLOAD","LAUNCH_DATE":"2021-01-20","ARG_OF_PERICENTER":"77.4213","CENTER_NAME":"EARTH","REV_AT_EPOCH":"8823","NORAD_CAT_ID":"47407","OBJECT_ID":"2021-005BL","DECAY_DATE":null,"MEAN_ANOMALY":"282.6958","GP_ID":"210448817","SEMIMAJOR_AXIS":"6925.326","BSTAR":"0.00030319000000","INCLINATION":"53.0542","TLE_LINE2":"2 47407  53.0542 104.5074 0001629  77.4213 282.6958 15.06407246 88232","FILE":"3539418","RA_OF_ASC_NODE":"104.5074"},{"CLASSIFICATION_TYPE":"U","MEAN_ELEMENT_THEORY":"SGP4","REV_AT_EPOCH":"8768","LAUNCH_DATE":"2021-01-20","ARG_OF_PERICENTER":"85.1378","CENTER_NAME":"EARTH","OBJECT_TYPE":"PAYLOAD","DECAY_DATE":null,"MEAN_ANOMALY":"274.9745","NORAD_CAT_ID":"47408","OBJECT_ID":"2021-005BM","RA_OF_ASC_NODE":"102.8559","FILE":"3539615","INCLINATION":"53.0551","TLE_LINE2":"2 47408  53.0551 102.8559 0001173  85.1378 274.9745 15.06416543 87680","GP_ID":"210474849","SEMIMAJOR_AXIS":"6925.298","BSTAR":"-0.00014827000000","EPOCH":"2022-08-18T17:41:24.555264","COUNTRY_CODE":"US","TLE_LINE1":"1 47408U 21005BM  22230.73708976 -.00002490  00000-0 -14827-3 0  9999","SITE":"AFETR","EPHEMERIS_TYPE":"0","PERIAPSIS":"546.351","REF_FRAME":"TEME","MEAN_MOTION_DDOT":"0.0000000000000","ELEMENT_SET_NO":"999","TIME_SYSTEM":"UTC","MEAN_MOTION_DOT":"-0.00002490","PERIOD":"95.591","ECCENTRICITY":"0.00011730","OBJECT_NAME":"STARLINK-2135","MEAN_MOTION":"15.06416543","RCS_SIZE":"LARGE","APOAPSIS":"547.975"}];
